NORAD_CAT_ID,OBJECT_NAME,OBJECT_TYPE,EPOCH,MEAN_MOTION,ECCENTRICITY,INCLINATION,RA_OF_ASC_NODE,ARG_OF_PERICENTER,MEAN_ANOMALY,BSTAR,MEAN_MOTION_DOT,MEAN_MOTION_DDOT,TLE_LINE0,TLE_LINE1,TLE_LINE2,SEMIMAJOR_AXIS,PERIOD,APOGEE,PERIGEE,DECAYED
49150.0,STARLINK-3104,PAYLOAD,2024-04-11 12:26:57,14.98321443,0.000313,69.9995,252.2649,276.7038,83.3765,0.00016178,1.837e-05,0.0,0 STARLINK-3104,1 49150U 21082W   24102.51872539  .00001837  00000-0  16178-3 0  9996,2 49150  69.9995 252.2649 0003130 276.7038  83.3765 14.98321443142758,6950.219,96.108,574.26,569.909,0.0
49150.0,STARLINK-3104,PAYLOAD,2024-04-11 14:03:05,14.98321786,0.000313,69.9995,252.0966,276.7097,83.3706,0.00016343,1.857e-05,0.0,0 STARLINK-3104,1 49150U 21082W   24102.58548564  .00001857  00000-0  16343-3 0  9997,2 49150  69.9995 252.0966 0003130 276.7097  83.3706 14.98321786142758,6950.218,96.108,574.259,569.908,0.0
49150.0,STARLINK-3104,PAYLOAD,2024-04-11 20:27:37,14.98327302,0.0003115,69.9997,251.4233,277.2024,82.8781,0.00020813,2.391e-05,0.0,0 STARLINK-3104,1 49150U 21082W   24102.85252239  .00002391  00000-0  20813-3 0  9999,2 49150  69.9997 251.4233 0003115 277.2024  82.8781 14.98327302142790,6950.201,96.107,574.231,569.901,0.0
49150.0,STARLINK-3104,PAYLOAD,2024-04-12 12:28:59,14.98325401,0.0003017,69.9999,249.7411,272.471,87.6103,8.2903e-05,8.96e-06,0.0,0 STARLINK-3104,1 49150U 21082W   24103.52013079  .00000896  00000-0  82903-4 0  9998,2 49150  69.9999 249.7411 0003017 272.4710  87.6103 14.98325401142902,6950.207,96.107,574.169,569.975,0.0
49150.0,STARLINK-3104,PAYLOAD,2024-04-12 14:05:07,14.98325323,0.0003023,70.0,249.5728,272.4452,87.6361,8.0544e-05,8.68e-06,0.0,0 STARLINK-3104,1 49150U 21082W   24103.58689112  .00000868  00000-0  80544-4 0  9999,2 49150  70.0000 249.5728 0003023 272.4452  87.6361 14.98325323142906,6950.207,96.107,574.173,569.971,0.0
49150.0,STARLINK-3104,PAYLOAD,2024-04-13 12:31:00,14.98330253,0.0002863,70.0005,247.2163,270.1267,89.9564,2.4052e-05,1.94e-06,0.0,0 STARLINK-3104,1 49150U 21082W   24104.52153039  .00000194  00000-0  24052-4 0  9992,2 49150  70.0005 247.2163 0002863 270.1267  89.9564 14.98330253143054,6950.192,96.107,574.047,570.067,0.0
49150.0,STARLINK-3104,PAYLOAD,2024-04-13 14:07:08,14.98330317,0.0002866,70.0005,247.048,270.1255,89.9576,2.4288e-05,1.97e-06,0.0,0 STARLINK-3104,1 49150U 21082W   24104.58829032  .00000197  00000-0  24288-4 0  9995,2 49150  70.0005 247.0480 0002866 270.1255  89.9576 14.98330317143058,6950.192,96.107,574.049,570.065,0.0
49150.0,STARLINK-3104,PAYLOAD,2024-04-13 18:55:32,14.98335327,0.000288,70.0005,246.543,269.3838,90.6991,4.2353e-05,4.12e-06,0.0,0 STARLINK-3104,1 49150U 21082W   24104.78856623  .00000412  00000-0  42353-4 0  9996,2 49150  70.0005 246.5430 0002880 269.3838  90.6991 14.98335327143089,6950.176,96.107,574.043,570.04,0.0
49150.0,STARLINK-3104,PAYLOAD,2024-04-14 12:33:00,14.98331542,0.0002918,70.0005,244.6915,267.9836,92.0989,5.753e-05,5.94e-06,0.0,0 STARLINK-3104,1 49150U 21082W   24105.52292762  .00000594  00000-0  57530-4 0  9991,2 49150  70.0005 244.6915 0002918 267.9836  92.0989 14.98331542143202,6950.188,96.107,574.081,570.025,0.0
49150.0,STARLINK-3104,PAYLOAD,2024-04-14 18:57:32,14.98334,0.0002716,70.0012,244.0188,259.1674,100.9179,8.6817e-05,9.43e-06,0.0,0 STARLINK-3104,1 49150U 21082W   24105.78996469  .00000943  00000-0  86817-4 0  9992,2 49150  70.0012 244.0188 0002716 259.1674 100.9179 14.98334000143230,6950.181,96.107,573.933,570.158,0.0
49150.0,STARLINK-3104,PAYLOAD,2024-04-15 12:35:01,14.98334597,0.0002748,70.0013,242.1667,257.4869,102.5982,6.7081e-05,7.08e-06,0.0,0 STARLINK-3104,1 49150U 21082W   24106.52432285  .00000708  00000-0  67081-4 0  9997,2 49150  70.0013 242.1667 0002748 257.4869 102.5982 14.98334597143358,6950.179,96.107,573.954,570.134,0.0
49150.0,STARLINK-3104,PAYLOAD,2024-04-15 14:11:09,14.98334648,0.0002743,70.0013,241.9984,257.3638,102.7215,6.7175e-05,7.09e-06,0.0,0 STARLINK-3104,1 49150U 21082W   24106.59108266  .00000709  00000-0  67175-4 0  9998,2 49150  70.0013 241.9984 0002743 257.3638 102.7215 14.98334648143353,6950.179,96.107,573.95,570.137,0.0
49150.0,STARLINK-3104,PAYLOAD,2024-04-15 18:59:33,14.98335218,0.0002737,70.0014,241.4934,257.9526,102.1326,7.0362e-05,7.47e-06,0.0,0 STARLINK-3104,1 49150U 21082W   24106.79136176  .00000747  00000-0  70362-4 0  9995,2 49150  70.0014 241.4934 0002737 257.9526 102.1326 14.98335218143383,6950.177,96.107,573.944,570.139,0.0
49150.0,STARLINK-3104,PAYLOAD,2024-04-16 12:37:02,14.98330685,0.0002838,70.001,239.6405,270.5374,89.546,1.4274e-05,7.7e-07,0.0,0 STARLINK-3104,1 49150U 21082W   24107.52572606  .00000077  00000-0  14274-4 0  9995,2 49150  70.0010 239.6405 0002838 270.5374  89.5460 14.98330685143509,6950.191,96.107,574.028,570.083,0.0
49150.0,STARLINK-3104,PAYLOAD,2024-04-16 14:13:10,14.9833287,0.0002768,70.0012,239.4732,269.3062,90.778,1.3903e-05,7.3e-07,0.0,0 STARLINK-3104,1 49150U 21082W   24107.59248469  .00000073  00000-0  13903-4 0  9993,2 49150  70.0012 239.4732 0002768 269.3062  90.7780 14.98332870143501,6950.184,96.107,573.973,570.125,0.0
49150.0,STARLINK-3104,PAYLOAD,2024-04-16 19:01:34,14.98341399,0.00027,70.0013,238.9704,259.6985,100.387,9.4769e-05,1.038e-05,0.0,0 STARLINK-3104,1 49150U 21082W   24107.79275605  .00001038  00000-0  94769-4 0  9998,2 49150  70.0013 238.9704 0002700 259.6985 100.3870 14.98341399143545,6950.158,96.106,573.899,570.146,0.0
49150.0,STARLINK-3104,PAYLOAD,2024-04-17 12:39:03,14.98327136,0.0003206,70.0,237.1151,270.5699,89.5092,-1.7384e-05,-3e-06,0.0,0 STARLINK-3104,1 49150U 21082W   24108.52712611 -.00000300  00000-0 -17384-4 0  9994,2 49150  70.0000 237.1151 0003206 270.5699  89.5092 14.98327136143653,6950.202,96.107,574.295,569.839,0.0
49150.0,STARLINK-3104,PAYLOAD,2024-04-17 19:03:35,14.98334578,0.0002866,70.0008,236.4446,256.577,103.5069,9.4887e-05,1.039e-05,0.0,0 STARLINK-3104,1 49150U 21082W   24108.79415840  .00001039  00000-0  94887-4 0  9998,2 49150  70.0008 236.4446 0002866 256.5770 103.5069 14.98334578143698,6950.179,96.107,574.036,570.052,0.0
49150.0,STARLINK-3104,PAYLOAD,2024-04-18 12:41:04,14.98323034,0.0002734,70.0022,234.5938,256.1118,103.9737,-6.7822e-06,-1.74e-06,0.0,0 STARLINK-3104,1 49150U 21082W   24109.52852918 -.00000174  00000-0 -67822-5 0  9992,2 49150  70.0022 234.5938 0002734 256.1118 103.9737 14.98323034143809,6950.214,96.107,573.98,570.179,0.0
49150.0,STARLINK-3104,PAYLOAD,2024-04-18 14:17:12,14.98324051,0.0002821,70.0021,234.4257,261.7763,98.3076,3.4723e-06,-5.2e-07,0.0,0 STARLINK-3104,1 49150U 21082W   24109.59528859 -.00000052  00000-0  34723-5 0  9991,2 49150  70.0021 234.4257 0002821 261.7763  98.3076 14.98324051143809,6950.211,96.107,574.037,570.116,0.0
49150.0,STARLINK-3104,PAYLOAD,2024-04-18 17:29:28,14.98324223,0.000263,70.0022,234.0899,259.9975,100.0887,9.9651e-05,1.096e-05,0.0,0 STARLINK-3104,1 49150U 21082W   24109.72880682  .00001096  00000-0  99651-4 0  9999,2 49150  70.0022 234.0899 0002630 259.9975 100.0887 14.98324223143824,6950.211,96.107,573.904,570.248,0.0
49150.0,STARLINK-3104,PAYLOAD,2024-04-19 14:19:14,14.98320758,0.0002525,70.0022,231.8997,248.3488,111.7402,9.3655e-05,1.024e-05,0.0,0 STARLINK-3104,1 49150U 21082W   24110.59669121  .00001024  00000-0  93655-4 0  9998,2 49150  70.0022 231.8997 0002525 248.3488 111.7402 14.98320758143957,6950.221,96.108,573.841,570.332,0.0
49150.0,STARLINK-3104,PAYLOAD,2024-04-19 17:31:29,14.98326217,0.0002607,70.0027,231.5645,256.1191,103.9678,0.00014539,1.642e-05,0.0,0 STARLINK-3104,1 49150U 21082W   24110.73020734  .00001642  00000-0  14539-3 0  9994,2 49150  70.0027 231.5645 0002607 256.1191 103.9678 14.98326217143985,6950.205,96.107,573.882,570.258,0.0
49150.0,STARLINK-3104,PAYLOAD,2024-04-20 12:45:08,14.98290025,0.0002398,70.0034,229.5467,224.8685,135.228,-0.00031443,-3.838e-05,0.0,0 STARLINK-3104,1 49150U 21082W   24111.53135323 -.00003838  00000-0 -31443-3 0  9998,2 49150  70.0034 229.5467 0002398 224.8685 135.2280 14.98290025144108,6950.317,96.11,573.848,570.515,0.0
49150.0,STARLINK-3104,PAYLOAD,2024-04-20 14:21:16,14.98291816,0.00024,70.0031,229.3781,228.2548,131.8407,-0.00029935,-3.659e-05,0.0,0 STARLINK-3104,1 49150U 21082W   24111.59811311 -.00003659  00000-0 -29935-3 0  9996,2 49150  70.0031 229.3781 0002400 228.2548 131.8407 14.98291816144104,6950.311,96.109,573.844,570.508,0.0
49150.0,STARLINK-3104,PAYLOAD,2024-04-20 17:33:32,14.9829828,0.0002871,70.0006,229.038,265.8299,94.2532,-0.00024361,-2.996e-05,0.0,0 STARLINK-3104,1 49150U 21082W   24111.73163104 -.00002996  00000-0 -24361-3 0  9993,2 49150  70.0006 229.0380 0002871 265.8299  94.2532 14.98298280144136,6950.291,96.109,574.151,570.161,0.0
49150.0,STARLINK-3104,PAYLOAD,2024-04-21 14:23:16,14.98329609,0.0002002,70.0024,226.8497,247.717,112.3777,9.345e-05,1.022e-05,0.0,0 STARLINK-3104,1 49150U 21082W   24112.59949229  .00001022  00000-0  93450-4 0  9991,2 49150  70.0024 226.8497 0002002 247.7170 112.3777 14.98329609144259,6950.194,96.107,573.451,570.668,0.0
49150.0,STARLINK-3104,PAYLOAD,2024-04-21 17:35:31,14.9834097,0.0002341,70.002,226.5161,255.3623,104.7277,0.00018707,2.14e-05,0.0,0 STARLINK-3104,1 49150U 21082W   24112.73300215  .00002140  00000-0  18707-3 0  9996,2 49150  70.0020 226.5161 0002341 255.3623 104.7277 14.98340970144281,6950.159,96.106,573.651,570.397,0.0
49150.0,STARLINK-3104,PAYLOAD,2024-04-22 11:13:00,14.983147,0.0002,70.0026,224.6627,253.1129,106.9811,0.00055954,6.587e-05,0.0,0 STARLINK-3104,1 49150U 21082W   24113.46736346  .00006587  00000-0  55954-3 0  9999,2 49150  70.0026 224.6627 0002000 253.1129 106.9811 14.98314700144394,6950.24,96.108,573.495,570.715,0.0
49150.0,STARLINK-3104,PAYLOAD,2024-04-22 17:37:32,14.98318517,0.0002329,70.0024,223.9896,269.5381,90.5511,0.00064343,7.59e-05,0.0,0 STARLINK-3104,1 49150U 21082W   24113.73440078  .00007590  00000-0  64343-3 0  9990,2 49150  70.0024 223.9896 0002329 269.5381  90.5511 14.98318517144426,6950.228,96.108,573.712,570.475,0.0
